IRIDIUM 154             
1 43574U 18061F   26193.55757411  .00000142  00000+0  43477-4 0  9990
2 43574  86.3940  46.1951 0002306  90.0128 270.1332 14.34217689417041
IRIDIUM 163             
1 43575U 18061G   26193.60831503  .00000104  00000+0  30045-4 0  9997
2 43575  86.3937  46.0883 0002156  85.4412 274.7030 14.34217556417024
IRIDIUM 156             
1 43576U 18061H   26193.58294510  .00000070  00000+0  17989-4 0  9990
2 43576  86.3938  46.1061 0002103  91.8790 268.2647 14.34217589417014
IRIDIUM 164             
1 43577U 18061J   26193.56391959  .00000148  00000+0  45826-4 0  9991
2 43577  86.3939  46.1551 0002311  89.2453 270.9007 14.34217588417051
IRIDIUM 159             
1 43578U 18061K   26193.60197231  .00000013  00000+0 -24784-5 0  9997
2 43578  86.3935  46.0754 0002037  84.9647 275.1781 14.34217135417025
IRIDIUM 180             
1 43922U 19002A   26193.46193361  .00000085  00000+0  23195-4 0  9992
2 43922  86.3991 343.0314 0002235  90.7071 269.4381 14.34217652392611
IRIDIUM 176             
1 43923U 19002B   26193.44307847  .00000428  00000+0  63907-4 0  9993
2 43923  86.6108 342.9790 0002342  89.6206 270.5279 14.72246965402967
IRIDIUM 168             
1 43924U 19002C   26191.36253025  .00000045  00000+0  89730-5 0  9999
2 43924  86.3988 343.9865 0002243  90.7210 269.4243 14.34217872392298
IRIDIUM 173             
1 43925U 19002D   26193.51267214 -.00000087  00000+0 -38279-4 0  9993
2 43925  86.3988 342.9764 0002050  91.6648 268.4783 14.34216926392586
IRIDIUM 169             
1 43926U 19002E   26193.57051013  .00000023  00000+0  91760-6 0  9992
2 43926  86.4219  14.5777 0001801 100.9496 259.1905 14.38613001393874
IRIDIUM 172             
1 43927U 19002F   26193.43656219  .00000097  00000+0  27412-4 0  9999
2 43927  86.3984 343.0158 0002177  89.7876 270.3569 14.34217816392587
IRIDIUM 175             
1 43928U 19002G   26193.22908725  .00000177  00000+0  46268-4 0  9998
2 43928  86.4513 280.0540 0005169 121.1648 239.0060 14.43626275402598
IRIDIUM 171             
1 43929U 19002H   26193.41753407  .00000059  00000+0  13879-4 0  9996
2 43929  86.3996 343.3327 0002214  95.2588 264.8861 14.34217603392573
IRIDIUM 170             
1 43930U 19002J   26193.44924955  .00000430  00000+0  64306-4 0  9993
2 43930  86.6107 342.9787 0002297  85.9412 274.2068 14.72247523402976
IRIDIUM 167             
1 43931U 19002K   26193.48095994  .00000059  00000+0  14069-4 0  9998
2 43931  86.3988 343.0196 0002250  99.1004 261.0446 14.34217698392587
IRIDIUM 181             
1 56726U 23068S   26193.55034004  .00000179  00000+0  47239-4 0  9992
2 56726  86.4476  46.1843 0002413  83.9584 276.1892 14.43311324166099
IRIDIUM 177             
1 56727U 23068T   26193.40498098  .00000581  00000+0  73374-4 0  9990
2 56727  86.1983 316.8182 0002145  93.6275 266.5192 14.80027657170095
IRIDIUM 174             
1 56728U 23068U   26193.43682236  .00000442  00000+0  66208-4 0  9997
2 56728  86.6116 343.1337 0002026  85.5654 274.5795 14.72256065169738
IRIDIUM 178             
1 56729U 23068V   26193.52918932  .00000196  00000+0  22499-4 0  9993
2 56729  86.6533  14.7675 0002322  90.2389 269.9099 14.80025335170117
IRIDIUM 179             
1 56730U 23068W   26193.59145639  .00000466  00000+0  58205-4 0  9992
2 56730  86.6765  23.7965 0002292  92.3365 267.8119 14.80034097170127
