OBJECT_NAME,OBJECT_ID,EPOCH,MEAN_MOTION,ECCENTRICITY,INCLINATION,RA_OF_ASC_NODE,ARG_OF_PERICENTER,MEAN_ANOMALY,EPHEMERIS_TYPE,CLASSIFICATION_TYPE,NORAD_CAT_ID,ELEMENT_SET_NO,REV_AT_EPOCH,BSTAR,MEAN_MOTION_DOT,MEAN_MOTION_DDOT
IRIDIUM 154,2018-061F,2026-07-12T13:22:54.403104,14.34217689,.00023063,86.3940,46.1951,90.0128,270.1332,0,U,43574,999,41704,.43477038E-4,.142E-5,0
IRIDIUM 163,2018-061G,2026-07-12T14:35:58.418592,14.34217556,.00021564,86.3937,46.0883,85.4412,274.7030,0,U,43575,999,41702,.300446E-4,.104E-5,0
IRIDIUM 156,2018-061H,2026-07-12T13:59:26.456640,14.34217589,.0002103,86.3938,46.1061,91.8790,268.2647,0,U,43576,999,41701,.17988733E-4,.7E-6,0
IRIDIUM 164,2018-061J,2026-07-12T13:32:02.652576,14.34217588,.00023114,86.3939,46.1551,89.2453,270.9007,0,U,43577,999,41705,.45826212E-4,.148E-5,0
IRIDIUM 159,2018-061K,2026-07-12T14:26:50.407584,14.34217135,.00020377,86.3935,46.0754,84.9647,275.1781,0,U,43578,999,41702,-.247842E-5,.13E-6,0
IRIDIUM 180,2019-002A,2026-07-12T11:05:11.063904,14.34217652,.00022355,86.3991,343.0314,90.7071,269.4381,0,U,43922,999,39261,.23194744E-4,.85E-6,0
IRIDIUM 176,2019-002B,2026-07-12T10:38:01.979808,14.72246965,.00023422,86.6108,342.9790,89.6206,270.5279,0,U,43923,999,40296,.63906668E-4,.428E-5,0
IRIDIUM 168,2019-002C,2026-07-10T08:42:02.613600,14.34217872,.00022436,86.3988,343.9865,90.7210,269.4243,0,U,43924,999,39229,.8973003E-5,.45E-6,0
IRIDIUM 173,2019-002D,2026-07-12T12:18:14.872896,14.34216926,.000205,86.3988,342.9764,91.6648,268.4783,0,U,43925,999,39258,-.38279034E-4,-.87E-6,0
IRIDIUM 169,2019-002E,2026-07-12T13:41:32.075232,14.38613001,.00018017,86.4219,14.5777,100.9496,259.1905,0,U,43926,999,39387,.917602E-6,.23E-6,0
IRIDIUM 172,2019-002F,2026-07-12T10:28:38.973216,14.34217816,.00021779,86.3984,343.0158,89.7876,270.3569,0,U,43927,999,39258,.27411983E-4,.97E-6,0
IRIDIUM 175,2019-002G,2026-07-12T05:29:53.138400,14.43626275,.00051691,86.4513,280.0540,121.1648,239.0060,0,U,43928,999,40259,.46267509E-4,.177E-5,0
IRIDIUM 171,2019-002H,2026-07-12T10:01:14.943648,14.34217603,.00022144,86.3996,343.3327,95.2588,264.8861,0,U,43929,999,39257,.13879036E-4,.59E-6,0
IRIDIUM 170,2019-002J,2026-07-12T10:46:55.161120,14.72247523,.00022971,86.6107,342.9787,85.9412,274.2068,0,U,43930,999,40297,.64305608E-4,.43E-5,0
IRIDIUM 167,2019-002K,2026-07-12T11:32:34.938816,14.34217698,.000225,86.3988,343.0196,99.1004,261.0446,0,U,43931,999,39258,.14068982E-4,.59E-6,0
IRIDIUM 181,2023-068S,2026-07-12T13:12:29.379456,14.43311324,.00024133,86.4476,46.1843,83.9584,276.1892,0,U,56726,999,16609,.47239499E-4,.179E-5,0
IRIDIUM 177,2023-068T,2026-07-12T09:43:10.356672,14.80027657,.00021459,86.1983,316.8182,93.6275,266.5192,0,U,56727,999,17009,.73374344E-4,.581E-5,0
IRIDIUM 174,2023-068U,2026-07-12T10:29:01.451904,14.72256065,.00020265,86.6116,343.1337,85.5654,274.5795,0,U,56728,999,16973,.66207542E-4,.442E-5,0
IRIDIUM 178,2023-068V,2026-07-12T12:42:01.957248,14.80025335,.00023227,86.6533,14.7675,90.2389,269.9099,0,U,56729,999,17011,.2249867E-4,.196E-5,0
IRIDIUM 179,2023-068W,2026-07-12T14:11:41.832096,14.80034097,.00022928,86.6765,23.7965,92.3365,267.8119,0,U,56730,999,17012,.58204725E-4,.466E-5,0
